COSMOS 2607             
1 67681U 26023H   26120.13813920  .00010093  00000+0  41432-3 0  9998
2 67681  96.6329 189.6886 0019900 296.0816  63.8375 15.24194824 12670
