{
  "norad_id": 67681,
  "name": "COSMOS 2607",
  "history": [
    {
      "epoch": "2026-04-30T03:18:55.226880Z",
      "apogee_km": 506.8784619838116,
      "perigee_km": 479.53011138233524,
      "latitude_deg": 6.413470729562757e-07,
      "longitude_deg": -78.13070399403986,
      "height_km": 490.3127153351619,
      "semi_major_axis_km": 6871.341286683073,
      "eccentricity": 0.00199003,
      "inclination_deg": 96.6329,
      "raan_deg": 189.6886,
      "arg_perigee_deg": 296.0816,
      "mean_anomaly_deg": 63.8375,
      "mean_motion_rev_day": 15.24194824
    }
  ]
}